{"version": 0.6, "generator": "Overpass API 0.7.57.1 74a55df1", "osm3s": {"timestamp_osm_base": "2021-11-16T06:01:02Z", "copyright": "The data included in this document is from www.openstreetmap.org. The data is made available under ODbL."}, "elements": [{"type": "node", "id": 1388390039, "lat": 41.875596, "lon": -87.6251579}, {"type": "node", "id": 1388390043, "lat": 41.8756014, "lon": -87.6245044}, {"type": "node", "id": 1388449891, "lat": 41.8757782, "lon": -87.6258429}, {"type": "node", "id": 1388449896, "lat": 41.8758001, "lon": -87.6245256}, {"type": "node", "id": 1388449897, "lat": 41.8762216, "lon": -87.6258555}, {"type": "node", "id": 1388449900, "lat": 41.8762323, "lon": -87.6251731}, {"type": "node", "id": 1388449902, "lat": 41.8762385, "lon": -87.6248137}, {"type": "node", "id": 1388449905, "lat": 41.8762855, "lon": -87.6246197}, {"type": "node", "id": 1388449906, "lat": 41.8762868, "lon": -87.6245402}, {"type": "node", "id": 1388449909, "lat": 41.8763149, "lon": -87.6248158}, {"type": "node", "id": 1388449910, "lat": 41.8763187, "lon": -87.6245425}, {"type": "node", "id": 1388449915, "lat": 41.8765607, "lon": -87.6251828}, {"type": "node", "id": 1388449916, "lat": 41.876565, "lon": -87.6247892}, {"type": "node", "id": 1388449917, "lat": 41.8766085, "lon": -87.62479}, {"type": "node", "id": 1388449918, "lat": 41.876611, "lon": -87.624548}, {"type": "node", "id": 1567952379, "lat": 41.8765212, "lon": -87.6251813}, {"type": "node", "id": 1567952400, "lat": 41.8765105, "lon": -87.6258637}, {"type": "node", "id": 1586372009, "lat": 41.8763178, "lon": -87.6246207}, {"type": "node", "id": 1602660477, "lat": 41.8749573, "lon": -87.6251903}, {"type": "node", "id": 1602660494, "lat": 41.8755483, "lon": -87.6258329}, {"type": "node", "id": 1602660498, "lat": 41.8745191, "lon": -87.6251394}, {"type": "node", "id": 1602660503, "lat": 41.8755971, "lon": -87.6252038}, {"type": "node", "id": 1602660510, "lat": 41.8745265, "lon": -87.6244863}, {"type": "node", "id": 1602660533, "lat": 41.8755942, "lon": -87.6254691}, {"type": "node", "id": 1602660534, "lat": 41.8751712, "lon": -87.6254607}, {"type": "node", "id": 1602660561, "lat": 41.8749506, "lon": -87.6258222}, {"type": "node", "id": 1602660564, "lat": 41.8755524, "lon": -87.6254682}, {"type": "node", "id": 1602660574, "lat": 41.8751672, "lon": -87.6258255}, {"type": "node", "id": 1631167305, "lat": 41.8751468, "lon": -87.6251502}, {"type": "node", "id": 1631167306, "lat": 41.8746145, "lon": -87.6244878}, {"type": "node", "id": 1631167309, "lat": 41.8746126, "lon": -87.6246935}, {"type": "node", "id": 1631167337, "lat": 41.8746695, "lon": -87.625142}, {"type": "node", "id": 1631167339, "lat": 41.874676, "lon": -87.6246957}, {"type": "node", "id": 1631167344, "lat": 41.8751548, "lon": -87.6244969}, {"type": "node", "id": 1885687996, "lat": 41.8745213, "lon": -87.6249421}, {"type": "node", "id": 2207542937, "lat": 41.8754761, "lon": -87.6235013}, {"type": "node", "id": 2207542941, "lat": 41.8755213, "lon": -87.6234804}, {"type": "node", "id": 2207542944, "lat": 41.8755212, "lon": -87.623503}, {"type": "node", "id": 2207542964, "lat": 41.8759573, "lon": -87.6235178}, {"type": "node", "id": 2207542967, "lat": 41.875999, "lon": -87.6234972}, {"type": "node", "id": 2207542971, "lat": 41.875999, "lon": -87.6235184}, {"type": "node", "id": 5417432184, "lat": 41.8759573, "lon": -87.623497}, {"type": "node", "id": 5417432185, "lat": 41.8754773, "lon": -87.6234806}, {"type": "node", "id": 7149898745, "lat": 41.8763785, "lon": -87.6232769}, {"type": "node", "id": 7151548670, "lat": 41.876378, "lon": -87.6233037}, {"type": "node", "id": 7151548671, "lat": 41.8763403, "lon": -87.6233026}, {"type": "node", "id": 7151548672, "lat": 41.8763407, "lon": -87.6232747}, {"type": "node", "id": 7151548673, "lat": 41.8763532, "lon": -87.6232747}, {"type": "node", "id": 7152041376, "lat": 41.8754761, "lon": -87.6234949}, {"type": "node", "id": 7152654333, "lat": 41.875114, "lon": -87.623267}, {"type": "node", "id": 7152654334, "lat": 41.875151, "lon": -87.6232664}, {"type": "node", "id": 7152654335, "lat": 41.8751518, "lon": -87.623239}, {"type": "node", "id": 7152654336, "lat": 41.8751427, "lon": -87.623239}, {"type": "node", "id": 7152654341, "lat": 41.8751079, "lon": -87.6232664}, {"type": "node", "id": 7152654342, "lat": 41.8751075, "lon": -87.623239}, {"type": "node", "id": 7152654350, "lat": 41.8751076, "lon": -87.6232444}, {"type": "node", "id": 7152654351, "lat": 41.8751153, "lon": -87.623239}, {"type": "way", "id": 124873917, "nodes": [1388449906, 1388449896, 1388449891, 1388449897, 1388449900, 1388449902, 1388449909, 1586372009, 1388449905, 1388449906], "tags": {"addr:city": "Chicago", "addr:housenumber": "430", "addr:postcode": "60605", "addr:state": "IL", "addr:street": "South Michigan Avenue", "addr:street:name": "Michigan", "addr:street:prefix": "South", "addr:street:type": "Avenue", "architect": "Dankmar Adler & Louis Sullivan", "building": "university", "building:colour": "tan", "building:levels": "17", "building:material": "stone", "chicago:building_id": "814863", "layer": "1", "name": "Auditorium Building", "wikidata": "Q546009", "wikipedia": "en:Auditorium Building (Chicago)"}}, {"type": "way", "id": 124873922, "nodes": [1388449910, 1388449918, 1388449917, 1388449916, 1388449915, 1567952379, 1388449900, 1388449902, 1388449909, 1586372009, 1388449910], "tags": {"addr:city": "Chicago", "addr:housenumber": "410-412", "addr:postcode": "60605", "addr:state": "IL", "addr:street": "South Michigan Avenue", "addr:street:name": "Michigan", "addr:street:prefix": "South", "addr:street:type": "Avenue", "building": "yes", "building:colour": "tan", "building:levels": "18", "building:material": "stone", "chicago:building_id": "814849", "description": "Also known as Studebaker Building", "ele": "181", "gnis:county_name": "Cook", "gnis:feature_id": "1826821", "gnis:import_uuid": "57871b70-0100-4405-bb30-88b2e001a944", "gnis:reviewed": "no", "heritage": "yes", "name": "Fine Arts Building", "source": "USGS Geonames", "wikidata": "Q5450045", "wikipedia": "en:Fine Arts Building (Chicago)"}}, {"type": "way", "id": 143274999, "nodes": [1388449897, 1567952400, 1567952379, 1388449900, 1388449897], "tags": {"addr:city": "Chicago", "addr:housenumber": "425", "addr:postcode": "60605", "addr:state": "IL", "addr:street": "South Wabash Avenue", "addr:street:name": "Wabash", "addr:street:prefix": "South", "addr:street:type": "Avenue", "building": "dormitory", "building:levels": "18", "chicago:building_id": "814855", "name": "Roosevelt University Dormitory"}}, {"type": "way", "id": 147077307, "nodes": [1602660510, 1885687996, 1602660498, 1631167337, 1631167305, 1388390039, 1388390043, 1631167344, 1631167306, 1602660510], "tags": {"addr:city": "Chicago", "addr:housenumber": "520", "addr:postcode": "60605", "addr:state": "IL", "addr:street": "South Michigan Avenue", "building": "hotel", "name": "Congress Plaza Hotel", "tourism": "hotel", "wikidata": "Q5160816", "wikipedia": "en:Congress Plaza Hotel"}}, {"type": "way", "id": 147077308, "nodes": [1602660503, 1602660533, 1602660564, 1602660534, 1602660574, 1602660561, 1602660477, 1602660503], "tags": {"addr:city": "Chicago", "addr:housenumber": "525", "addr:postcode": "60605", "addr:state": "IL", "addr:street": "South Wabash Avenue", "addr:street:name": "Wabash", "addr:street:prefix": "South", "addr:street:type": "Avenue", "amenity": "parking", "building": "garage", "building:levels": "5", "chicago:building_id": "834530", "name": "Auditorium Parking", "parking": "multi-storey"}}, {"type": "way", "id": 147077320, "nodes": [1602660564, 1602660494, 1602660574, 1602660534, 1602660564], "tags": {"addr:city": "Chicago", "addr:housenumber": "501", "addr:postcode": "60605", "addr:state": "IL", "addr:street": "South Wabash Avenue", "building": "university", "building:levels": "2", "name": "Lillan and Larry Goodman Center"}}, {"type": "way", "id": 150182921, "nodes": [1631167305, 1631167337, 1631167339, 1631167309, 1631167306, 1631167344, 1631167305], "tags": {"addr:housenumber": "520", "addr:postcode": "60605", "addr:street": "South Michigan Avenue", "addr:street:name": "Michigan", "addr:street:prefix": "South", "addr:street:type": "Avenue", "building": "hotel", "building:colour": "tan", "building:levels": "13", "building:material": "stone", "chicago:building_id": "834529", "name": "Congress Plaza Hotel", "website": "https://www.congressplazahotel.com/"}}, {"type": "way", "id": 150182922, "nodes": [1388390039, 1388390043, 1631167344, 1631167305, 1388390039], "tags": {"addr:housenumber": "500-510", "addr:street": "South Michigan Avenue", "addr:street:name": "Michigan", "addr:street:prefix": "South", "addr:street:type": "Avenue", "building": "hotel", "building:colour": "tan", "building:levels": "13", "building:material": "stone", "chicago:building_id": "834528", "name": "Congress Plaza Hotel"}}, {"type": "way", "id": 150182924, "nodes": [1631167337, 1602660498, 1885687996, 1602660510, 1631167306, 1631167309, 1631167339, 1631167337], "tags": {"addr:city": "Chicago", "addr:postcode": "60605", "addr:state": "IL", "addr:street": "South Michigan Avenue", "building": "hotel", "building:colour": "grey", "building:material": "glass"}}, {"type": "way", "id": 210671749, "nodes": [5417432185, 7152041376, 2207542937, 2207542944, 2207542941, 5417432185], "tags": {"area": "yes", "artist:wikidata": "Q313828", "artist_name": "Ivan Mestrovic", "artwork_type": "sculpture", "building": "yes", "chicago:building_id": "874126", "name": "Equestrian Indians (The Spearman)", "tourism": "artwork", "website": "http://www.cpdit01.com/resources/planning-and-development.fountains-monuments-and-sculptures/Grant%20Park/Equestrian%20Indians.pdf", "wheelchair": "yes", "wikipedia": "en:The_Bowman_and_The_Spearman"}}, {"type": "way", "id": 210671755, "nodes": [5417432184, 2207542964, 2207542971, 2207542967, 5417432184], "tags": {"area": "yes", "artist:wikidata": "Q313828", "artist_name": "Ivan Mestrovic", "artwork_type": "sculpture", "building": "yes", "chicago:building_id": "874127", "name": "Equestrian Indians (The Bowman)", "tourism": "artwork", "website": "http://www.cpdit01.com/resources/planning-and-development.fountains-monuments-and-sculptures/Grant%20Park/Equestrian%20Indians.pdf", "wheelchair": "yes", "wikipedia": "en:The_Bowman_and_The_Spearman"}}, {"type": "way", "id": 765728484, "nodes": [7151548670, 7149898745, 7151548673, 7151548672, 7151548671, 7151548670], "tags": {"building": "yes"}}, {"type": "way", "id": 765851900, "nodes": [7152654333, 7152654341, 7152654350, 7152654342, 7152654351, 7152654336, 7152654335, 7152654334, 7152654333], "tags": {"building": "yes"}}]}